[{"OBJECT_NAME":"STARLINK-3372","OBJECT_ID":"2022-005K","EPOCH":"2026-03-09T19:41:30.469920","MEAN_MOTION":15.08825229,"ECCENTRICITY":0.00014832,"INCLINATION":53.218,"RA_OF_ASC_NODE":288.5375,"ARG_OF_PERICENTER":95.1079,"MEAN_ANOMALY":265.0082,"EPHEMERIS_TYPE":0,"CLASSIFICATION_TYPE":"U","NORAD_CAT_ID":51113,"ELEMENT_SET_NO":999,"REV_AT_EPOCH":22889,"BSTAR":0.00014903946,"MEAN_MOTION_DOT":2.084e-5,"MEAN_MOTION_DDOT":0},{"OBJECT_NAME":"RAAF M1","OBJECT_ID":"2018-099X","EPOCH":"2026-03-09T15:51:10.230048","MEAN_MOTION":15.07065376,"ECCENTRICITY":0.00134971,"INCLINATION":97.4534,"RA_OF_ASC_NODE":114.8325,"ARG_OF_PERICENTER":21.6261,"MEAN_ANOMALY":338.5534,"EPHEMERIS_TYPE":0,"CLASSIFICATION_TYPE":"U","NORAD_CAT_ID":43779,"ELEMENT_SET_NO":999,"REV_AT_EPOCH":39714,"BSTAR":0.00026511092,"MEAN_MOTION_DOT":3.923e-5,"MEAN_MOTION_DDOT":0}]
